CENTISPACE-1 S4         
1 53758U 22108B   26165.11536308  .00000612  00000+0  15893-3 0  9995
2 53758  53.5309  65.4936 0008387 334.4449  25.6110 14.61929334201117
BLUEWALKER-3            
1 53807U 22111AL  26164.99611850  .00006270  00000+0  17414-3 0  9992
2 53807  53.2302  48.9528 0006563 151.4197 208.7169 15.38237272209716
YUNHAI-1 03             
1 53877U 22115A   26165.18444413  .00000276  00000+0  11744-3 0  9994
2 53877  98.5531 163.3697 0005880  62.8874 297.2909 14.32716100195080
CENTISPACE-1 S5         
1 54020U 22126A   26165.14577470  .00000544  00000+0  14187-3 0  9995
2 54020  54.9979 225.1314 0014510  66.8193 293.4328 14.63010613196594
CENTISPACE-1 S6         
1 54021U 22126B   26165.13744272  .00000360  00000+0  10787-3 0  9999
2 54021  54.9983 227.0158 0016359  66.7857 293.4857 14.62288304196552
OTB-3-GAZELLE           
1 54023U 22127A   26165.21618966  .00000133  00000+0  52990-4 0  9992
2 54023  98.3943 156.9657 0012763 192.3272 167.7608 14.42673522193932
ASO-S                   
1 54029U 22129A   26165.22185642  .00000192  00000+0  58527-4 0  9998
2 54029  98.2747 170.3448 0015743 100.9668 259.3300 14.52060476194995
HJ-2E                   
1 54035U 22132A   26165.19554884  .00007670  00000+0  33423-3 0  9998
2 54035  97.3791 169.6256 0020921  25.4967 334.7297 15.22275547203962
COSMOS 2561             
1 54109U 22137A   26165.19554245  .00013471  00000+0  22775-3 0  9990
2 54109  96.9184 224.3083 0011012  46.1479 314.0683 15.51634320205884
GONETS-M 23             
1 54150U 22139A   26165.20388392  .00000034  00000+0  17248-3 0  9998
2 54150  82.5073 350.1488 0020788 226.4637 133.4716 12.42890715165271
GONETS-M 24             
1 54151U 22139B   26165.17697944  .00000028  00000+0  13415-3 0  9996
2 54151  82.4989 349.2274 0015905 237.0120 122.9432 12.42891326165276
GONETS-M 25             
1 54152U 22139C   26165.16336120  .00000026  00000+0  11604-3 0  9998
2 54152  82.5048 349.9205 0019837 235.7317 124.1885 12.42889928165277
SKIF-D                  
1 54153U 22139D   26164.25956708  .00000002  00000+0  00000+0 0  9996
2 54153  89.9514  96.6688 0007379 200.9098 159.1029  5.00428502 63915
MATS                    
1 54227U 22147A   26164.99125050  .00003024  00000+0  21530-3 0  9998
2 54227  97.6821 166.6018 0011643 201.8856 158.1875 15.05339790197282
JILIN-1 GAOFEN 03D54    
1 54254U 22155D   26164.95544844  .00346169  50336-4  82774-3 0  9998
2 54254  97.6101 317.6380 0004960 265.0111  95.0599 15.96552713199784
EOS-6 (OCEANSAT-3)      
1 54361U 22158A   26165.18931184  .00000238  00000+0  77500-4 0  9997
2 54361  98.3538 263.4232 0001378  51.5286 308.6030 14.46998812187407
DONGPO 09               
1 54685U 22167D   26165.21847686  .00011909  00000+0  33902-3 0  9997
2 54685  97.6888 336.0930 0003498 122.7555 237.4026 15.36275357194991
DONGPO 08               
1 54686U 22167E   26165.19375478  .00010637  00000+0  32967-3 0  9997
2 54686  97.6852 333.2594 0008455 170.2846 189.8561 15.33592413194869
2022-167F               
1 54687U 22167F   26165.19284109  .00230658  21900-4  72201-3 0  9997
2 54687  97.6106 352.7421 0001226 221.6415 138.4764 15.91474669196356
DONGPO 10               
1 54689U 22167H   26165.20197579  .00010908  00000+0  32968-3 0  9998
2 54689  97.6932 335.2124 0006240 118.5433 241.6438 15.34399380194903
JILIN-1 GAOFEN 03D48    
1 54695U 22167P   26165.20117183  .00011417  00000+0  33659-3 0  9992
2 54695  97.6867 334.5885 0007558 123.7057 236.4907 15.35163545194935
STAR VIBE               
1 55009U 23001A   26165.12150958  .00015638  00000+0  36173-3 0  9991
2 55009  97.3177 229.5728 0007131 121.1460 239.0488 15.42541666191754
BRO-8                   
1 55011U 23001C   26165.14107479  .00036241  00000+0  67139-3 0  9995
2 55011  97.3222 230.2808 0006793 131.9375 228.2455 15.48889915191733
CONNECTA T1.2           
1 55012U 23001D   26165.13782584  .00043141  00000+0  75420-3 0  9990
2 55012  97.3279 235.7741 0006663 110.7221 249.4745 15.50507530192071
BIRKELAND               
1 55015U 23001G   26165.15763868  .00011367  00000+0  28628-3 0  9992
2 55015  97.3354 233.1193 0008327 113.7962 246.4158 15.40033308191884
ION SCV-008             
1 55051U 23001AU  26165.22664748  .00006825  00000+0  24773-3 0  9997
2 55051  97.5717 261.4948 0015308  28.7199 331.4880 15.28546333190884
ION SCV-007             
1 55060U 23001BD  26165.15052694  .00000392  00000+0  61953-4 0  9995
2 55060  97.9007 228.2257 0012060 352.4425   7.6602 14.77550998185800
HUYGENS                 
1 55093U 23001CN  26165.15772521  .00009779  00000+0  24641-3 0  9999
2 55093  97.3257 232.3533 0011161  95.4769 264.7750 15.40031325191903
SHARJAHSAT-1            
1 55104U 23001CZ  26165.14123740  .00022541  00000+0  41792-3 0  9992
2 55104  97.3179 233.8650 0007152 111.9487 248.2525 15.48957294192022
HORUS 1                 
1 55690U 23025A   26165.19710522  .00005635  00000+0  23848-3 0  9990
2 55690  97.3469 239.8555 0002349 121.7783 238.3683 15.23575921183598
