OBJECT_NAME,OBJECT_ID,EPOCH,MEAN_MOTION,ECCENTRICITY,INCLINATION,RA_OF_ASC_NODE,ARG_OF_PERICENTER,MEAN_ANOMALY,EPHEMERIS_TYPE,CLASSIFICATION_TYPE,NORAD_CAT_ID,ELEMENT_SET_NO,REV_AT_EPOCH,BSTAR,MEAN_MOTION_DOT,MEAN_MOTION_DDOT
CENTISPACE-1 S4,2022-108B,2026-06-14T02:46:07.370112,14.61929334,.0008387,53.5309,65.4936,334.4449,25.6110,0,U,53758,999,20111,.15893E-3,.612E-5,0
BLUEWALKER-3,2022-111AL,2026-06-13T23:54:24.638400,15.38237272,.0006563,53.2302,48.9528,151.4197,208.7169,0,U,53807,999,20971,.17414E-3,.627E-4,0
YUNHAI-1 03,2022-115A,2026-06-14T04:25:35.972832,14.32716100,.000588,98.5531,163.3697,62.8874,297.2909,0,U,53877,999,19508,.11744E-3,.276E-5,0
CENTISPACE-1 S5,2022-126A,2026-06-14T03:29:54.934080,14.63010613,.001451,54.9979,225.1314,66.8193,293.4328,0,U,54020,999,19659,.14187E-3,.544E-5,0
CENTISPACE-1 S6,2022-126B,2026-06-14T03:17:55.051008,14.62288304,.0016359,54.9983,227.0158,66.7857,293.4857,0,U,54021,999,19655,.10787E-3,.36E-5,0
OTB-3-GAZELLE,2022-127A,2026-06-14T05:11:18.786624,14.42673522,.0012763,98.3943,156.9657,192.3272,167.7608,0,U,54023,999,19393,.5299E-4,.133E-5,0
ASO-S,2022-129A,2026-06-14T05:19:28.394688,14.52060476,.0015743,98.2747,170.3448,100.9668,259.3300,0,U,54029,999,19499,.58527E-4,.192E-5,0
HJ-2E,2022-132A,2026-06-14T04:41:35.419776,15.22275547,.0020921,97.3791,169.6256,25.4967,334.7297,0,U,54035,999,20396,.33423E-3,.767E-4,0
COSMOS 2561,2022-137A,2026-06-14T04:41:34.867680,15.51634320,.0011012,96.9184,224.3083,46.1479,314.0683,0,U,54109,999,20588,.22775E-3,.13471E-3,0
GONETS-M 23,2022-139A,2026-06-14T04:53:35.570688,12.42890715,.0020788,82.5073,350.1488,226.4637,133.4716,0,U,54150,999,16527,.17248E-3,.34E-6,0
GONETS-M 24,2022-139B,2026-06-14T04:14:51.023616,12.42891326,.0015905,82.4989,349.2274,237.0120,122.9432,0,U,54151,999,16527,.13415E-3,.28E-6,0
GONETS-M 25,2022-139C,2026-06-14T03:55:14.407680,12.42889928,.0019837,82.5048,349.9205,235.7317,124.1885,0,U,54152,999,16527,.11604E-3,.26E-6,0
SKIF-D,2022-139D,2026-06-13T06:13:46.595712,5.00428502,.00073798,89.9514,96.6688,200.9098,159.1029,0,U,54153,999,6391,0,.2E-7,0
MATS,2022-147A,2026-06-13T23:47:24.043200,15.05339790,.0011643,97.6821,166.6018,201.8856,158.1875,0,U,54227,999,19728,.2153E-3,.3024E-4,0
JILIN-1 GAOFEN 03D54,2022-155D,2026-06-13T22:55:50.745216,15.96552713,.000496,97.6101,317.6380,265.0111,95.0599,0,U,54254,999,19978,.82774E-3,.346169E-2,.50336E-4
EOS-6 (OCEANSAT-3),2022-158A,2026-06-14T04:32:36.542976,14.46998812,.0001378,98.3538,263.4232,51.5286,308.6030,0,U,54361,999,18740,.775E-4,.238E-5,0
DONGPO 09,2022-167D,2026-06-14T05:14:36.400704,15.36275357,.0003498,97.6888,336.0930,122.7555,237.4026,0,U,54685,999,19499,.33902E-3,.11909E-3,0
DONGPO 08,2022-167E,2026-06-14T04:39:00.412992,15.33592413,.0008455,97.6852,333.2594,170.2846,189.8561,0,U,54686,999,19486,.32967E-3,.10637E-3,0
2022-167F,2022-167F,2026-06-14T04:37:41.470176,15.91474669,.0001226,97.6106,352.7421,221.6415,138.4764,0,U,54687,999,19635,.72201E-3,.230658E-2,.219E-4
DONGPO 10,2022-167H,2026-06-14T04:50:50.708256,15.34399380,.000624,97.6932,335.2124,118.5433,241.6438,0,U,54689,999,19490,.32968E-3,.10908E-3,0
JILIN-1 GAOFEN 03D48,2022-167P,2026-06-14T04:49:41.246112,15.35163545,.0007558,97.6867,334.5885,123.7057,236.4907,0,U,54695,999,19493,.33659E-3,.11417E-3,0
STAR VIBE,2023-001A,2026-06-14T02:54:58.427712,15.42541666,.0007131,97.3177,229.5728,121.1460,239.0488,0,U,55009,999,19175,.36173E-3,.15638E-3,0
BRO-8,2023-001C,2026-06-14T03:23:08.861856,15.48889915,.0006793,97.3222,230.2808,131.9375,228.2455,0,U,55011,999,19173,.67139E-3,.36241E-3,0
CONNECTA T1.2,2023-001D,2026-06-14T03:18:28.152576,15.50507530,.0006663,97.3279,235.7741,110.7221,249.4745,0,U,55012,999,19207,.7542E-3,.43141E-3,0
BIRKELAND,2023-001G,2026-06-14T03:46:59.981952,15.40033308,.0008327,97.3354,233.1193,113.7962,246.4158,0,U,55015,999,19188,.28628E-3,.11367E-3,0
ION SCV-008,2023-001AU,2026-06-14T05:26:22.342272,15.28546333,.0015308,97.5717,261.4948,28.7199,331.4880,0,U,55051,999,19088,.24773E-3,.6825E-4,0
ION SCV-007,2023-001BD,2026-06-14T03:36:45.527616,14.77550998,.001206,97.9007,228.2257,352.4425,7.6602,0,U,55060,999,18580,.61953E-4,.392E-5,0
HUYGENS,2023-001CN,2026-06-14T03:47:07.458144,15.40031325,.0011161,97.3257,232.3533,95.4769,264.7750,0,U,55093,999,19190,.24641E-3,.9779E-4,0
SHARJAHSAT-1,2023-001CZ,2026-06-14T03:23:22.911360,15.48957294,.0007152,97.3179,233.8650,111.9487,248.2525,0,U,55104,999,19202,.41792E-3,.22541E-3,0
HORUS 1,2023-025A,2026-06-14T04:43:49.891008,15.23575921,.0002349,97.3469,239.8555,121.7783,238.3683,0,U,55690,999,18359,.23848E-3,.5635E-4,0
